{
    "links": {
        "self": "http://www.neowsapp.com/rest/v1/neo/3769468?api_key=iIulBulltgU6a56xZRHN4H3l9WmuAYTsLGpBGhQ2"
    },
    "id": "3769468",
    "neo_reference_id": "3769468",
    "name": "(2017 CY32)",
    "designation": "2017 CY32",
    "nasa_jpl_url": "http://ssd.jpl.nasa.gov/sbdb.cgi?sstr=3769468",
    "absolute_magnitude_h": 28.541,
    "estimated_diameter": {
        "kilometers": {
            "estimated_diameter_min": 0.005204212,
            "estimated_diameter_max": 0.0116369717
        },
        "meters": {
            "estimated_diameter_min": 5.2042119621,
            "estimated_diameter_max": 11.6369717165
        },
        "miles": {
            "estimated_diameter_min": 0.0032337464,
            "estimated_diameter_max": 0.0072308768
        },
        "feet": {
            "estimated_diameter_min": 17.0741867736,
            "estimated_diameter_max": 38.1790422864
        }
    },
    "is_potentially_hazardous_asteroid": false,
    "close_approach_data": [
        {
            "close_approach_date": "2017-02-02",
            "close_approach_date_full": "2017-Feb-02 14:01",
            "epoch_date_close_approach": 1486044060000,
            "relative_velocity": {
                "kilometers_per_second": "17.6388921368",
                "kilometers_per_hour": "63500.0116923652",
                "miles_per_hour": "39456.4378207366"
            },
            "miss_distance": {
                "astronomical": "0.0041877869",
                "lunar": "1.6290491041",
                "kilometers": "626484.000253903",
                "miles": "389279.1066457414"
            },
            "orbiting_body": "Earth"
        },
        {
            "close_approach_date": "2017-02-02",
            "close_approach_date_full": "2017-Feb-02 14:59",
            "epoch_date_close_approach": 1486047540000,
            "relative_velocity": {
                "kilometers_per_second": "18.6722562018",
                "kilometers_per_hour": "67220.1223266456",
                "miles_per_hour": "41767.9698979093"
            },
            "miss_distance": {
                "astronomical": "0.0065151555",
                "lunar": "2.5343954895",
                "kilometers": "974653.385518785",
                "miles": "605621.530717833"
            },
            "orbiting_body": "Moon"
        }
    ],
    "orbital_data": {
        "orbit_id": "2",
        "orbit_determination_date": "2017-04-06 08:20:11",
        "first_observation_date": "2017-02-01",
        "last_observation_date": "2017-02-01",
        "data_arc_in_days": null,
        "observations_used": 18,
        "orbit_uncertainty": "9",
        "minimum_orbit_intersection": ".00207369",
        "jupiter_tisserand_invariant": "3.403",
        "epoch_osculation": "2457785.5",
        "eccentricity": ".6595229451567496",
        "semi_major_axis": "2.129136571695332",
        "inclination": "3.845233397437707",
        "ascending_node_longitude": "132.1966723294481",
        "orbital_period": "1134.759184601573",
        "perihelion_distance": ".7249221492898817",
        "perihelion_argument": "72.25681212002029",
        "aphelion_distance": "3.533350994100782",
        "perihelion_time": "2457829.864711022778",
        "mean_anomaly": "345.9253873553728",
        "mean_motion": ".317247927917323",
        "equinox": "J2000",
        "orbit_class": {
            "orbit_class_type": "APO",
            "orbit_class_description": "Near-Earth asteroid orbits which cross the Earth’s orbit similar to that of 1862 Apollo",
            "orbit_class_range": "a (semi-major axis) > 1.0 AU; q (perihelion) < 1.017 AU"
        }
    },
    "is_sentry_object": false
}